GLOBALSTAR M063 [+]     
1 26081U 00008A   24084.78358324 -.00000084  00000+0 -23326-4 0  9996
2 26081  51.9938 215.1203 0005176 165.7203   2.3527 11.86152242104243
GLOBALSTAR M062 [-]     
1 26082U 00008B   24084.86575079 -.00000095  00000+0  22214-4 0  9990
2 26082  51.9874 337.0648 0006419 230.8445 207.9752 12.43430993440728
GLOBALSTAR M060 [-]     
1 26083U 00008C   24084.82194134 -.00000116  00000+0 -25122-3 0  9991
2 26083  52.0007 233.6274 0002542 291.8767 235.5118 12.17627747 97628
GLOBALSTAR M064 [-]     
1 26084U 00008D   24084.96472554  .00000003  00000+0  12325-2 0  9995
2 26084  52.0049 318.7718 0000724 288.5647  71.5107 11.88517000113681
GLOBALSTAR M065 [+]     
1 31571U 07020A   24084.93827456 -.00000052  00000+0  29216-3 0  9998
2 31571  51.9881 153.5872 0010386  35.6837 134.9494 12.61964738776687
GLOBALSTAR M069 [+]     
1 31573U 07020C   24084.93034618 -.00000016  00000+0  49006-3 0  9999
2 31573  51.9935 109.5457 0000448 195.9727 232.6927 12.62268208777818
GLOBALSTAR M072 [+]     
1 31574U 07020D   24084.53247494 -.00000066  00000+0  20871-3 0  9998
2 31574  52.0073 206.6172 0001038 120.5871 319.6017 12.62269263776038
GLOBALSTAR M071 [P]     
1 31576U 07020F   24084.82084003 -.00000041  00000+0  35056-3 0  9991
2 31576  52.0051 114.9780 0001001 208.0054 323.1446 12.62270050438988
